{"type": "Feature", "geometry": {"type": "MultiPolygon", "coordinates": [[[[-5.8269418, 37.4623708], [-5.8264826, 37.4625915], [-5.8260808, 37.4625731], [-5.8255433, 37.4624808], [-5.8244689, 37.4615875], [-5.8239893, 37.4615069], [-5.8229068, 37.4618204], [-5.8227097, 37.4619641], [-5.8229058, 37.4626537], [-5.8226449, 37.4627386], [-5.8215051, 37.462748], [-5.8206325, 37.4628943], [-5.8204541, 37.4627161], [-5.8195395, 37.4615488], [-5.8193036, 37.461253], [-5.8185434, 37.4618574], [-5.8141874, 37.4631852], [-5.8127027, 37.4629982], [-5.8122283, 37.4630631], [-5.8120261, 37.4624281], [-5.8116909, 37.4617311], [-5.8118107, 37.4612175], [-5.8118635, 37.4609898], [-5.8116662, 37.4601625], [-5.8116992, 37.459882], [-5.8122581, 37.459184], [-5.812481, 37.45854], [-5.8124435, 37.4582005], [-5.8121173, 37.4575494], [-5.8131183, 37.4577104], [-5.8141694, 37.4578415], [-5.8152804, 37.4580697], [-5.8161373, 37.4583463], [-5.8165615, 37.4584018], [-5.8173671, 37.4585857], [-5.8182542, 37.4583902], [-5.8187859, 37.4584194], [-5.8195044, 37.4586566], [-5.8198741, 37.4586931], [-5.8206243, 37.45886], [-5.8209341, 37.4586186], [-5.8217068, 37.4586479], [-5.8220698, 37.4585633], [-5.8226496, 37.4584777], [-5.8235138, 37.458235], [-5.8240438, 37.4581569], [-5.8250818, 37.4578142], [-5.8258915, 37.4574422], [-5.8260453, 37.4584129], [-5.826187, 37.4591537], [-5.8264456, 37.4606404], [-5.8254803, 37.4608117], [-5.8254758, 37.4609051], [-5.8256787, 37.4617814], [-5.8267247, 37.4616709], [-5.8269418, 37.4623708]]]]}, "properties": {"run_id": "eee9aa62-072a-494e-9d56-603aa6e34d9e", "result_version": "86f09878efe4477f9494a7dc10feaf6a8a5b9970363be33d67e76b94ebf83317", "state": "partial", "period": {"from": "2024-06-10", "to": "2024-06-20"}, "polygon_id": "514623e9-1896-4f0d-91ed-5b304d163972", "polygon_version": 1, "geometry_hash": "9dba5b3969168c659bd45f07beff9dd998a75d5b7520503574031a1b4031f27c", "model_id": "25a39f51737d1012", "model_manifest": {"files": {"model.json": "b9a8f098b1b8a2f976737847185b405ddaa68cad7e965eb128754ce23eca488c"}, "config": {"clip": false, "seed": 42, "robust": true, "algorithm": "catboost_residual", "use_history": true, "use_sensors": true, "use_weather": false, "max_gap_days": 60, "max_edge_days": 14, "quality_filter": true, "boost_iterations": 160, "season_start_month": 1, "smoothing_strength": 20.0}, "python": "3.12.9", "metrics": {"assessment": {"temporal_blocks/m5_without_weather": {"n": 286, "mae": 0.1050503184876152, "bias": 0.055154912715038217, "rmse": 0.14083513100283285, "slices": {"year": {"2024": {"n": 286, "mae": 0.1050503184876152, "bias": 0.055154912715038217, "rmse": 0.14083513100283285, "gap_score": 0, "fallback_rate": 0.46853146853146854, "unavailable_rate": 0.0, "p95_absolute_error": 0.3175882761412104}}, "origin": {"extrapolated": {"n": 15, "mae": 0.03614156693974957, "bias": 0.021038174446741238, "rmse": 0.052213840964308936, "gap_score": 14.34, "fallback_rate": 0.0, "unavailable_rate": 0.0, "p95_absolute_error": 0.0887190126731677}, "interpolated": {"n": 137, "mae": 0.058171115450796625, "bias": 0.029993837337430804, "rmse": 0.07996325996384741, "gap_score": 6.01, "fallback_rate": 0.0, "unavailable_rate": 0.0, "p95_absolute_error": 0.17731634880412164}, "climatology_fallback": {"n": 134, "mae": 0.16069272213882513, "bias": 0.0846983336162074, "rmse": 0.1883904257809314, "gap_score": 0, "fallback_rate": 1.0, "unavailable_rate": 0.0, "p95_absolute_error": 0.3485618763166742}}, "crop_type": {"зерновые": {"n": 62, "mae": 0.07095052498441855, "bias": 0.055874486614732766, "rmse": 0.09020458363770874, "gap_score": 2.94, "fallback_rate": 0.3870967741935484, "unavailable_rate": 0.0, "p95_absolute_error": 0.16768015181209228}, "подсолнечник": {"n": 17, "mae": 0.0361500469604998, "bias": 0.022232852297181818, "rmse": 0.04140059951246892, "gap_score": 17.58, "fallback_rate": 0.0, "unavailable_rate": 0.0, "p95_absolute_error": 0.06616135968696937}, "озимая пшеница": {"n": 196, "mae": 0.12616237727189375, "bias": 0.06013076503845041, "rmse": 0.1617173613193083, "gap_score": 0, "fallback_rate": 0.5612244897959183, "unavailable_rate": 0.0, "p95_absolute_error": 0.3378982810135162}, "пастбища/зерновые": {"n": 11, "mae": 0.027552890436756846, "bias": 0.013318039072648065, "rmse": 0.03459095621454498, "gap_score": 19.62, "fallback_rate": 0.0, "unavailable_rate": 0.0, "p95_absolute_error": 0.06023362490723136}}, "gap_bucket": {"0-8": {"n": 10, "mae": 0.023638319296198525, "bias": 0.003509923070374879, "rmse": 0.02851842420059113, "gap_score": 21.44, "fallback_rate": 0.0, "unavailable_rate": 0.0, "p95_absolute_error": 0.049732317509806945}, ">60": {"n": 106, "mae": 0.16398784773708325, "bias": 0.13617858776938324, "rmse": 0.19407610151752772, "gap_score": 0, "fallback_rate": 1.0, "unavailable_rate": 0.0, "p95_absolute_error": 0.35381697293008124}, "9-30": {"n": 83, "mae": 0.061745288080128115, "bias": -0.00636412086840798, "rmse": 0.09027924280692573, "gap_score": 2.92, "fallback_rate": 0.1927710843373494, "unavailable_rate": 0.0, "p95_absolute_error": 0.23090300285404416}, "31-60": {"n": 87, "mae": 0.08391307038752302, "bias": 0.021063190049660004, "rmse": 0.10697077040595249, "gap_score": 0, "fallback_rate": 0.13793103448275862, "unavailable_rate": 0.0, "p95_absolute_error": 0.22669877939349464}}, "anon_polygon_id": {"AOI-0002": {"n": 6, "mae": 0.03533115854962029, "bias": 0.004135363135384984, "rmse": 0.03995306463023411, "gap_score": 18.01, "fallback_rate": 0.0, "unavailable_rate": 0.0, "p95_absolute_error": 0.0637681982199379}, "AOI-0003": {"n": 5, "mae": 0.09179051616224784, "bias": 0.07399417157488185, "rmse": 0.1113033340803658, "gap_score": 0, "fallback_rate": 0.6, "unavailable_rate": 0.0, "p95_absolute_error": 0.17277342645440152}, "AOI-0004": {"n": 14, "mae": 0.04654514186763814, "bias": 0.026305897317746994, "rmse": 0.05311859754085975, "gap_score": 14.06, "fallback_rate": 0.0, "unavailable_rate": 0.0, "p95_absolute_error": 0.08361495961640797}, "AOI-0007": {"n": 24, "mae": 0.16419150045821687, "bias": 0.16419150045821687, "rmse": 0.17321436352488698, "gap_score": 0, "fallback_rate": 1.0, "unavailable_rate": 0.0, "p95_absolute_error": 0.2631898016799483}, "AOI-0015": {"n": 31, "mae": 0.2735421076676263, "bias": 0.2735421076676263, "rmse": 0.28755600671207165, "gap_score": 0, "fallback_rate": 1.0, "unavailable_rate": 0.0, "p95_absolute_error": 0.39160331133421317}, "AOI-0020": {"n": 4, "mae": 0.03451682272254939, "bias": 0.03451682272254939, "rmse": 0.04306888095642893, "gap_score": 17.08, "fallback_rate": 0.0, "unavailable_rate": 0.0, "p95_absolute_error": 0.066225210273689}, "AOI-0021": {"n": 7, "mae": 0.03358822019653322, "bias": 0.0003880582472477904, "rmse": 0.03677623167174415, "gap_score": 18.97, "fallback_rate": 0.0, "unavailable_rate": 0.0, "p95_absolute_error": 0.04710935005139627}, "AOI-0023": {"n": 6, "mae": 0.04022766101042777, "bias": 0.039529131738526464, "rmse": 0.04518667086042176, "gap_score": 16.44, "fallback_rate": 0.0, "unavailable_rate": 0.0, "p95_absolute_error": 0.06352445013049735}, "AOI-0026": {"n": 5, "mae": 0.021895516556909893, "bias": 0.015600889196566253, "rmse": 0.02518545355619489, "gap_score": 22.44, "fallback_rate": 0.0, "unavailable_rate": 0.0, "p95_absolute_error": 0.03592926627102898}, "AOI-0027": {"n": 12, "mae": 0.15548861584201182, "bias": 0.1267011217197801, "rmse": 0.17758169734051213, "gap_score": 0, "fallback_rate": 0.0, "unavailable_rate": 0.0, "p95_absolute_error": 0.24823550710280712}, "AOI-0030": {"n": 2, "mae": 0.10037606434995028, "bias": 0.10037606434995028, "rmse": 0.10421697422876786, "gap_score": 0, "fallback_rate": 0.0, "unavailable_rate": 0.0, "p95_absolute_error": 0.1256053523431059}, "AOI-0033": {"n": 4, "mae": 0.041433225328309134, "bias": 0.041433225328309134, "rmse": 0.048037954507050264, "gap_score": 15.59, "fallback_rate": 0.0, "unavailable_rate": 0.0, "p95_absolute_error": 0.07122010448111094}, "AOI-0035": {"n": 7, "mae": 0.01962127049872697, "bias": -0.002747781644872545, "rmse": 0.023698391980760822, "gap_score": 22.89, "fallback_rate": 0.0, "unavailable_rate": 0.0, "p95_absolute_error": 0.03923865029708728}, "AOI-0037": {"n": 4, "mae": 0.027718480597756716, "bias": 0.002679574834835101, "rmse": 0.03197870704210977, "gap_score": 20.41, "fallback_rate": 0.0, "unavailable_rate": 0.0, "p95_absolute_error": 0.04478650191749292}, "AOI-0038": {"n": 14, "mae": 0.031179239438572776, "bias": 0.01437526568287861, "rmse": 0.038958612103736606, "gap_score": 18.31, "fallback_rate": 0.0, "unavailable_rate": 0.0, "p95_absolute_error": 0.06020347582647664}, "AOI-0041": {"n": 5, "mae": 0.03938376471541046, "bias": -0.03687713372428135, "rmse": 0.04460095800085817, "gap_score": 16.62, "fallback_rate": 0.0, "unavailable_rate": 0.0, "p95_absolute_error": 0.060118889828743825}, "AOI-0043": {"n": 4, "mae": 0.024068172487508796, "bias": 0.011729815748329403, "rmse": 0.02413564336597927, "gap_score": 22.76, "fallback_rate": 0.0, "unavailable_rate": 0.0, "p95_absolute_error": 0.025657358332049168}, "AOI-0045": {"n": 8, "mae": 0.058793494759995374, "bias": 0.05260007982915069, "rmse": 0.06580409753542792, "gap_score": 10.26, "fallback_rate": 0.0, "unavailable_rate": 0.0, "p95_absolute_error": 0.10195282589576797}, "AOI-0050": {"n": 5, "mae": 0.08327025886084596, "bias": 0.04025843557119814, "rmse": 0.09001027438742361, "gap_score": 3.0, "fallback_rate": 0.0, "unavailable_rate": 0.0, "p95_absolute_error": 0.10930502833122971}, "AOI-0053": {"n": 27, "mae": 0.07196969100878763, "bias": -0.03720740367921977, "rmse": 0.10161024263605244, "gap_score": 0, "fallback_rate": 1.0, "unavailable_rate": 0.0, "p95_absolute_error": 0.20421786854473126}, "AOI-0055": {"n": 15, "mae": 0.06361973696426218, "bias": -0.00445701650931371, "rmse": 0.0775587508666437, "gap_score": 6.73, "fallback_rate": 0.6, "unavailable_rate": 0.0, "p95_absolute_error": 0.14407404437735924}, "AOI-0060": {"n": 9, "mae": 0.13151475380098784, "bias": 0.029833640095479452, "rmse": 0.1466912865004477, "gap_score": 0, "fallback_rate": 0.0, "unavailable_rate": 0.0, "p95_absolute_error": 0.21007384733041196}, "AOI-0064": {"n": 18, "mae": 0.05735057840255194, "bias": 0.02653054250928552, "rmse": 0.06368323440596611, "gap_score": 10.9, "fallback_rate": 0.0, "unavailable_rate": 0.0, "p95_absolute_error": 0.09815778146495904}, "AOI-0070": {"n": 24, "mae": 0.12579703559166402, "bias": 0.12579703559166402, "rmse": 0.13390946173948834, "gap_score": 0, "fallback_rate": 1.0, "unavailable_rate": 0.0, "p95_absolute_error": 0.20520504209268192}, "AOI-0071": {"n": 3, "mae": 0.022960316231972134, "bias": -0.01673897866375428, "rmse": 0.02494484651279541, "gap_score": 22.52, "fallback_rate": 0.0, "unavailable_rate": 0.0, "p95_absolute_error": 0.03122900812473249}, "AOI-0075": {"n": 23, "mae": 0.14256468588229615, "bias": -0.13360419967462683, "rmse": 0.16836332875071539, "gap_score": 0, "fallback_rate": 0.6956521739130435, "unavailable_rate": 0.0, "p95_absolute_error": 0.2567432654174782}}}, "gap_score": 0, "p90_aoi_rmse": 0.17078884613780118, "fallback_rate": 0.46853146853146854, "median_aoi_rmse": 0.05840091597341293, "p95_absolute_error": 0.3175882761412104, "rmse_bootstrap_aoi_95": [0.08987902148427002, 0.18820433672954795]}, "temporal_points/m5_without_weather": {"n": 282, "mae": 0.049599893950772675, "bias": 0.003891756646517216, "rmse": 0.06603727267091139, "slices": {"year": {"2024": {"n": 282, "mae": 0.049599893950772675, "bias": 0.003891756646517216, "rmse": 0.06603727267091139, "gap_score": 10.19, "fallback_rate": 0.0, "unavailable_rate": 0.0, "p95_absolute_error": 0.13849283724291933}}, "origin": {"extrapolated": {"n": 11, "mae": 0.043273719878285655, "bias": 0.013307672797154628, "rmse": 0.053119970912924634, "gap_score": 14.06, "fallback_rate": 0.0, "unavailable_rate": 0.0, "p95_absolute_error": 0.09326583822786078}, "interpolated": {"n": 271, "mae": 0.04985667592419466, "bias": 0.0035095607880042583, "rmse": 0.06650862900104906, "gap_score": 10.05, "fallback_rate": 0.0, "unavailable_rate": 0.0, "p95_absolute_error": 0.13870505775879527}}, "crop_type": {"зерновые": {"n": 82, "mae": 0.04291154961113696, "bias": -0.00020607025203012738, "rmse": 0.05491863310968316, "gap_score": 13.52, "fallback_rate": 0.0, "unavailable_rate": 0.0, "p95_absolute_error": 0.12136896975747195}, "подсолнечник": {"n": 36, "mae": 0.048422446391271814, "bias": 0.019282784102668014, "rmse": 0.06564568252359264, "gap_score": 10.31, "fallback_rate": 0.0, "unavailable_rate": 0.0, "p95_absolute_error": 0.12301154230369674}, "озимая пшеница": {"n": 138, "mae": 0.0562556490438517, "bias": -9.027905873248493e-05, "rmse": 0.0748115023560736, "gap_score": 7.56, "fallback_rate": 0.0, "unavailable_rate": 0.0, "p95_absolute_error": 0.15087944258649152}, "пастбища/зерновые": {"n": 26, "mae": 0.036997514917974796, "bias": 0.016640439130513843, "rmse": 0.04598219187597397, "gap_score": 16.21, "fallback_rate": 0.0, "unavailable_rate": 0.0, "p95_absolute_error": 0.0762821248662712}}, "gap_bucket": {"0-8": {"n": 218, "mae": 0.04705096632570182, "bias": 0.005286573212164659, "rmse": 0.06169704493529003, "gap_score": 11.49, "fallback_rate": 0.0, "unavailable_rate": 0.0, "p95_absolute_error": 0.13411814102122488}, "9-30": {"n": 64, "mae": 0.058282178673670276, "bias": -0.0008593372802193876, "rmse": 0.07905272197975889, "gap_score": 6.28, "fallback_rate": 0.0, "unavailable_rate": 0.0, "p95_absolute_error": 0.1460993559126883}}, "anon_polygon_id": {"AOI-0002": {"n": 9, "mae": 0.05097641437388077, "bias": -0.01752464695500108, "rmse": 0.056384002708028826, "gap_score": 13.08, "fallback_rate": 0.0, "unavailable_rate": 0.0, "p95_absolute_error": 0.09295916385772532}, "AOI-0003": {"n": 12, "mae": 0.051621325687035424, "bias": -0.0019819425270057706, "rmse": 0.06621939558959182, "gap_score": 10.13, "fallback_rate": 0.0, "unavailable_rate": 0.0, "p95_absolute_error": 0.12327011864287145}, "AOI-0004": {"n": 9, "mae": 0.02364052128860765, "bias": 0.013866545151294504, "rmse": 0.02568542131666889, "gap_score": 22.29, "fallback_rate": 0.0, "unavailable_rate": 0.0, "p95_absolute_error": 0.03552055726179724}, "AOI-0007": {"n": 10, "mae": 0.04640106050623429, "bias": 0.02395737462046494, "rmse": 0.052375144968149365, "gap_score": 14.29, "fallback_rate": 0.0, "unavailable_rate": 0.0, "p95_absolute_error": 0.0753179905309099}, "AOI-0015": {"n": 12, "mae": 0.03399758935752343, "bias": 0.015103278772112053, "rmse": 0.04078386518178206, "gap_score": 17.76, "fallback_rate": 0.0, "unavailable_rate": 0.0, "p95_absolute_error": 0.0596072045303623}, "AOI-0020": {"n": 12, "mae": 0.05154039478766054, "bias": 0.020176345327970222, "rmse": 0.0701324007213647, "gap_score": 8.96, "fallback_rate": 0.0, "unavailable_rate": 0.0, "p95_absolute_error": 0.13387312195187728}, "AOI-0021": {"n": 12, "mae": 0.043521284156420974, "bias": 0.014916957878957552, "rmse": 0.06761163683741048, "gap_score": 9.72, "fallback_rate": 0.0, "unavailable_rate": 0.0, "p95_absolute_error": 0.12972825552247347}, "AOI-0023": {"n": 12, "mae": 0.05020566022973392, "bias": 0.022755049101076272, "rmse": 0.058635994365142205, "gap_score": 12.41, "fallback_rate": 0.0, "unavailable_rate": 0.0, "p95_absolute_error": 0.09209792455972093}, "AOI-0026": {"n": 8, "mae": 0.07838202689673704, "bias": 0.053644972134907244, "rmse": 0.10341716289025764, "gap_score": 0, "fallback_rate": 0.0, "unavailable_rate": 0.0, "p95_absolute_error": 0.19172317612430095}, "AOI-0027": {"n": 8, "mae": 0.09804303338844142, "bias": 0.0005805102413606947, "rmse": 0.11240169218143327, "gap_score": 0, "fallback_rate": 0.0, "unavailable_rate": 0.0, "p95_absolute_error": 0.1869507388406278}, "AOI-0030": {"n": 7, "mae": 0.05124883626330309, "bias": -0.012754632207803263, "rmse": 0.0586439788862729, "gap_score": 12.41, "fallback_rate": 0.0, "unavailable_rate": 0.0, "p95_absolute_error": 0.08457232004178142}, "AOI-0033": {"n": 13, "mae": 0.03736012751161636, "bias": 0.02364523635013334, "rmse": 0.04784673188823146, "gap_score": 15.65, "fallback_rate": 0.0, "unavailable_rate": 0.0, "p95_absolute_error": 0.08867434971855849}, "AOI-0035": {"n": 13, "mae": 0.036634902324333224, "bias": 0.009635641910894348, "rmse": 0.04403878049008021, "gap_score": 16.79, "fallback_rate": 0.0, "unavailable_rate": 0.0, "p95_absolute_error": 0.07094008023161266}, "AOI-0037": {"n": 14, "mae": 0.03481931035210679, "bias": -0.025518086181534543, "rmse": 0.043745170467514666, "gap_score": 16.88, "fallback_rate": 0.0, "unavailable_rate": 0.0, "p95_absolute_error": 0.08545143596575776}, "AOI-0038": {"n": 14, "mae": 0.0480527940974792, "bias": 0.00040895852157568435, "rmse": 0.060346193742920246, "gap_score": 11.9, "fallback_rate": 0.0, "unavailable_rate": 0.0, "p95_absolute_error": 0.10256845886482015}, "AOI-0041": {"n": 13, "mae": 0.02604502854799999, "bias": 0.007280185236216138, "rmse": 0.03606457226424236, "gap_score": 19.18, "fallback_rate": 0.0, "unavailable_rate": 0.0, "p95_absolute_error": 0.0741309986990468}, "AOI-0043": {"n": 12, "mae": 0.046383956558716716, "bias": 0.027033157985388728, "rmse": 0.06300888113323475, "gap_score": 11.1, "fallback_rate": 0.0, "unavailable_rate": 0.0, "p95_absolute_error": 0.1334139577147428}, "AOI-0045": {"n": 10, "mae": 0.06407582988873703, "bias": 0.013614637206944493, "rmse": 0.07888675838073025, "gap_score": 6.33, "fallback_rate": 0.0, "unavailable_rate": 0.0, "p95_absolute_error": 0.1352446659214937}, "AOI-0050": {"n": 10, "mae": 0.08342929058742195, "bias": -0.01984268262525248, "rmse": 0.10230785314580086, "gap_score": 0, "fallback_rate": 0.0, "unavailable_rate": 0.0, "p95_absolute_error": 0.1821186655570924}, "AOI-0053": {"n": 11, "mae": 0.052573123797940685, "bias": -0.0004905759367583231, "rmse": 0.07302885698766723, "gap_score": 8.09, "fallback_rate": 0.0, "unavailable_rate": 0.0, "p95_absolute_error": 0.14586651118719035}, "AOI-0055": {"n": 10, "mae": 0.046524922806876284, "bias": -0.009888079412331312, "rmse": 0.05491447572662669, "gap_score": 13.53, "fallback_rate": 0.0, "unavailable_rate": 0.0, "p95_absolute_error": 0.09521543366567008}, "AOI-0060": {"n": 10, "mae": 0.09165291477471843, "bias": -0.034386644369617775, "rmse": 0.12272678327919166, "gap_score": 0, "fallback_rate": 0.0, "unavailable_rate": 0.0, "p95_absolute_error": 0.23816556696428223}, "AOI-0064": {"n": 10, "mae": 0.03827082534801253, "bias": 0.03516558513707278, "rmse": 0.05756548523187115, "gap_score": 12.73, "fallback_rate": 0.0, "unavailable_rate": 0.0, "p95_absolute_error": 0.11807129043065087}, "AOI-0070": {"n": 10, "mae": 0.03739104405365635, "bias": -0.003554479082016787, "rmse": 0.04125258146638444, "gap_score": 17.62, "fallback_rate": 0.0, "unavailable_rate": 0.0, "p95_absolute_error": 0.06586056962267287}, "AOI-0071": {"n": 9, "mae": 0.049852890729610286, "bias": -0.020556873174644205, "rmse": 0.05348258977244222, "gap_score": 13.96, "fallback_rate": 0.0, "unavailable_rate": 0.0, "p95_absolute_error": 0.08079171514571051}, "AOI-0075": {"n": 12, "mae": 0.054421944034991676, "bias": -0.035514355047295, "rmse": 0.06444427448748002, "gap_score": 10.67, "fallback_rate": 0.0, "unavailable_rate": 0.0, "p95_absolute_error": 0.11248303764387027}}}, "gap_score": 10.19, "p90_aoi_rmse": 0.10286250801802925, "fallback_rate": 0.0, "median_aoi_rmse": 0.05863998662570755, "p95_absolute_error": 0.13849283724291933, "rmse_bootstrap_aoi_95": [0.05690583665783329, 0.07543040503165367]}, "assessment_blocks/m5_without_weather": {"n": 514, "mae": 0.09659400252351572, "bias": -0.0095271248064214, "rmse": 0.1287482175631989, "slices": {"year": {"2010": {"n": 21, "mae": 0.09905763793181735, "bias": 0.06276692208882796, "rmse": 0.11549578626631239, "gap_score": 0, "fallback_rate": 0.5714285714285714, "unavailable_rate": 0.0, "p95_absolute_error": 0.1699222869190366}, "2011": {"n": 14, "mae": 0.07967589017222797, "bias": 0.015324397670472984, "rmse": 0.09561928172863551, "gap_score": 1.31, "fallback_rate": 0.2857142857142857, "unavailable_rate": 0.0, "p95_absolute_error": 0.1524943927874169}, "2012": {"n": 11, "mae": 0.059879292799514226, "bias": 0.05006324612941297, "rmse": 0.07774233870314044, "gap_score": 6.68, "fallback_rate": 0.0, "unavailable_rate": 0.0, "p95_absolute_error": 0.13007086002059992}, "2013": {"n": 34, "mae": 0.06518772278583575, "bias": 0.0002592223130168168, "rmse": 0.08103361653193762, "gap_score": 5.69, "fallback_rate": 0.7941176470588235, "unavailable_rate": 0.0, "p95_absolute_error": 0.15877240716672522}, "2014": {"n": 40, "mae": 0.1154300064998726, "bias": 0.023811814472590058, "rmse": 0.14151344686131664, "gap_score": 0, "fallback_rate": 0.8, "unavailable_rate": 0.0, "p95_absolute_error": 0.2789765672881038}, "2015": {"n": 50, "mae": 0.09319654699072474, "bias": -0.06948076848172623, "rmse": 0.10529776564464463, "gap_score": 0, "fallback_rate": 0.56, "unavailable_rate": 0.0, "p95_absolute_error": 0.17256077062627104}, "2016": {"n": 50, "mae": 0.13066597868227364, "bias": -0.07964140963830901, "rmse": 0.17308021043668104, "gap_score": 0, "fallback_rate": 0.86, "unavailable_rate": 0.0, "p95_absolute_error": 0.33879761828941213}, "2017": {"n": 62, "mae": 0.07222857044363139, "bias": -0.007670388287950931, "rmse": 0.09350402340636371, "gap_score": 1.95, "fallback_rate": 0.3870967741935484, "unavailable_rate": 0.0, "p95_absolute_error": 0.21272659573666386}, "2018": {"n": 26, "mae": 0.06441036426896332, "bias": 0.021941566205903824, "rmse": 0.08594882777585615, "gap_score": 4.22, "fallback_rate": 0.0, "unavailable_rate": 0.0, "p95_absolute_error": 0.19173112694920585}, "2019": {"n": 76, "mae": 0.13694025495048748, "bias": 0.048693890385681636, "rmse": 0.1774314974182734, "gap_score": 0, "fallback_rate": 0.4868421052631579, "unavailable_rate": 0.0, "p95_absolute_error": 0.36358884705392724}, "2020": {"n": 35, "mae": 0.05451943280915011, "bias": -0.012344686961186005, "rmse": 0.07712898159236017, "gap_score": 6.86, "fallback_rate": 0.0, "unavailable_rate": 0.0, "p95_absolute_error": 0.131513137706967}, "2021": {"n": 31, "mae": 0.13048259752074964, "bias": -0.08460851285407348, "rmse": 0.1672521143988317, "gap_score": 0, "fallback_rate": 0.6451612903225806, "unavailable_rate": 0.0, "p95_absolute_error": 0.31013289036652225}, "2022": {"n": 28, "mae": 0.06973992904196545, "bias": -0.005238743631258631, "rmse": 0.09267335710888402, "gap_score": 2.2, "fallback_rate": 0.32142857142857145, "unavailable_rate": 0.0, "p95_absolute_error": 0.1789231848218673}, "2023": {"n": 36, "mae": 0.09172511665489053, "bias": -0.02998615482610778, "rmse": 0.12091896774855083, "gap_score": 0, "fallback_rate": 0.16666666666666666, "unavailable_rate": 0.0, "p95_absolute_error": 0.21280367070118902}}, "origin": {"extrapolated": {"n": 25, "mae": 0.08780946097679568, "bias": 0.006043498181275544, "rmse": 0.11831297788363679, "gap_score": 0, "fallback_rate": 0.0, "unavailable_rate": 0.0, "p95_absolute_error": 0.2236828935655279}, "interpolated": {"n": 247, "mae": 0.07461190182837343, "bias": 0.004728869440180494, "rmse": 0.1027120590363487, "gap_score": 0, "fallback_rate": 0.0, "unavailable_rate": 0.0, "p95_absolute_error": 0.22922268620010017}, "climatology_fallback": {"n": 242, "mae": 0.11993777281429316, "bias": -0.02568619982131021, "rmse": 0.1516353788822494, "gap_score": 0, "fallback_rate": 1.0, "unavailable_rate": 0.0, "p95_absolute_error": 0.3255132316959697}}, "crop_type": {"зерновые": {"n": 122, "mae": 0.08277672733864265, "bias": 0.008786047009518896, "rmse": 0.10402130306966337, "gap_score": 0, "fallback_rate": 0.6311475409836066, "unavailable_rate": 0.0, "p95_absolute_error": 0.1971356729374303}, "подсолнечник": {"n": 99, "mae": 0.10108627227494386, "bias": 0.032936940678648864, "rmse": 0.13710306210129888, "gap_score": 0, "fallback_rate": 0.3434343434343434, "unavailable_rate": 0.0, "p95_absolute_error": 0.2838501824524375}, "озимая пшеница": {"n": 293, "mae": 0.10082940480052298, "bias": -0.03150033110187079, "rmse": 0.1349895313351012, "gap_score": 0, "fallback_rate": 0.447098976109215, "unavailable_rate": 0.0, "p95_absolute_error": 0.3180815418207751}}, "gap_bucket": {"0-8": {"n": 18, "mae": 0.08444816284881759, "bias": -0.012267988004374404, "rmse": 0.12135201392861272, "gap_score": 0, "fallback_rate": 0.0, "unavailable_rate": 0.0, "p95_absolute_error": 0.24864861860044446}, ">60": {"n": 197, "mae": 0.11418085957728054, "bias": -0.005278658158788584, "rmse": 0.1479071274247256, "gap_score": 0, "fallback_rate": 1.0, "unavailable_rate": 0.0, "p95_absolute_error": 0.3338737325750263}, "9-30": {"n": 142, "mae": 0.0757145343474786, "bias": -0.017023721348055767, "rmse": 0.10653244646382805, "gap_score": 0, "fallback_rate": 0.22535211267605634, "unavailable_rate": 0.0, "p95_absolute_error": 0.21662834774803605}, "31-60": {"n": 157, "mae": 0.094803548737211, "bias": -0.007763403042780829, "rmse": 0.12192167450912865, "gap_score": 0, "fallback_rate": 0.08280254777070063, "unavailable_rate": 0.0, "p95_absolute_error": 0.2551344051056391}}, "anon_polygon_id": {"AOI-0020": {"n": 99, "mae": 0.10108627227494386, "bias": 0.032936940678648864, "rmse": 0.13710306210129888, "gap_score": 0, "fallback_rate": 0.3434343434343434, "unavailable_rate": 0.0, "p95_absolute_error": 0.2838501824524375}, "AOI-0027": {"n": 98, "mae": 0.10353799369905305, "bias": -0.029333951195557487, "rmse": 0.129251693988777, "gap_score": 0, "fallback_rate": 0.5, "unavailable_rate": 0.0, "p95_absolute_error": 0.24345695937376782}, "AOI-0055": {"n": 83, "mae": 0.06529174499251526, "bias": -0.03560309751718109, "rmse": 0.08674639967699016, "gap_score": 3.98, "fallback_rate": 0.3373493975903614, "unavailable_rate": 0.0, "p95_absolute_error": 0.1745779966332043}, "AOI-0060": {"n": 112, "mae": 0.12479533383631487, "bias": -0.030355470551406055, "rmse": 0.16575958749494354, "gap_score": 0, "fallback_rate": 0.48214285714285715, "unavailable_rate": 0.0, "p95_absolute_error": 0.34965832295783034}, "AOI-0070": {"n": 122, "mae": 0.08277672733864265, "bias": 0.008786047009518896, "rmse": 0.10402130306966337, "gap_score": 0, "fallback_rate": 0.6311475409836066, "unavailable_rate": 0.0, "p95_absolute_error": 0.1971356729374303}}}, "gap_score": 0, "p90_aoi_rmse": 0.15429697733748568, "fallback_rate": 0.4708171206225681, "median_aoi_rmse": 0.129251693988777, "p95_absolute_error": 0.2751367730384462, "rmse_bootstrap_aoi_95": [0.10430226561840746, 0.15040174309364304]}, "assessment_points/m5_without_weather": {"n": 511, "mae": 0.05556281093945426, "bias": -0.003394475605416017, "rmse": 0.0824147595830391, "slices": {"year": {"2010": {"n": 22, "mae": 0.045178070924818584, "bias": 0.0007983018951730543, "rmse": 0.05867824688075706, "gap_score": 12.4, "fallback_rate": 0.0, "unavailable_rate": 0.0, "p95_absolute_error": 0.0787674761223856}, "2011": {"n": 27, "mae": 0.05565895513872487, "bias": -0.01965041401222712, "rmse": 0.0794491826324149, "gap_score": 6.17, "fallback_rate": 0.037037037037037035, "unavailable_rate": 0.0, "p95_absolute_error": 0.14684745151886236}, "2012": {"n": 19, "mae": 0.06554282649016599, "bias": 0.0028239935000487974, "rmse": 0.08121769697923592, "gap_score": 5.63, "fallback_rate": 0.0, "unavailable_rate": 0.0, "p95_absolute_error": 0.15573846561218443}, "2013": {"n": 25, "mae": 0.048998306266083966, "bias": -0.01567985465000375, "rmse": 0.0618758384162316, "gap_score": 11.44, "fallback_rate": 0.0, "unavailable_rate": 0.0, "p95_absolute_error": 0.12583769614044274}, "2014": {"n": 31, "mae": 0.03078879593687743, "bias": 6.677957668609831e-05, "rmse": 0.03679601343769138, "gap_score": 18.96, "fallback_rate": 0.0, "unavailable_rate": 0.0, "p95_absolute_error": 0.06244268969881284}, "2015": {"n": 31, "mae": 0.05509902549319657, "bias": 0.0016617027592368719, "rmse": 0.06916145991308544, "gap_score": 9.25, "fallback_rate": 0.0, "unavailable_rate": 0.0, "p95_absolute_error": 0.11547998967452291}, "2016": {"n": 28, "mae": 0.05007118632418357, "bias": 0.01031907721912165, "rmse": 0.06441575778373905, "gap_score": 10.68, "fallback_rate": 0.0, "unavailable_rate": 0.0, "p95_absolute_error": 0.13979397716936615}, "2017": {"n": 43, "mae": 0.05649518898394578, "bias": -0.009794739974099933, "rmse": 0.07387516624640503, "gap_score": 7.84, "fallback_rate": 0.0, "unavailable_rate": 0.0, "p95_absolute_error": 0.16150753336147938}, "2018": {"n": 38, "mae": 0.0446590408809308, "bias": -0.006767670608722183, "rmse": 0.06361126481646158, "gap_score": 10.92, "fallback_rate": 0.0, "unavailable_rate": 0.0, "p95_absolute_error": 0.10225085305733161}, "2019": {"n": 51, "mae": 0.0737550691195309, "bias": -0.020525493717796772, "rmse": 0.12347461693268155, "gap_score": 0, "fallback_rate": 0.0, "unavailable_rate": 0.0, "p95_absolute_error": 0.3547982775180937}, "2020": {"n": 53, "mae": 0.044966943518231446, "bias": -0.006747919619513072, "rmse": 0.05813949019620828, "gap_score": 12.56, "fallback_rate": 0.0, "unavailable_rate": 0.0, "p95_absolute_error": 0.11854185987371672}, "2021": {"n": 44, "mae": 0.08679452260200433, "bias": -0.01888715363832796, "rmse": 0.13361285054626357, "gap_score": 0, "fallback_rate": 0.0, "unavailable_rate": 0.0, "p95_absolute_error": 0.26160537060469824}, "2022": {"n": 45, "mae": 0.06113016938753564, "bias": 0.011305585391969124, "rmse": 0.0865032875583491, "gap_score": 4.05, "fallback_rate": 0.022222222222222223, "unavailable_rate": 0.0, "p95_absolute_error": 0.20141929984537113}, "2023": {"n": 54, "mae": 0.04667018835778119, "bias": 0.021839139192153273, "rmse": 0.0652324213425263, "gap_score": 10.43, "fallback_rate": 0.0, "unavailable_rate": 0.0, "p95_absolute_error": 0.13827262985851446}}, "origin": {"extrapolated": {"n": 30, "mae": 0.06745315000186085, "bias": 0.014107740935131253, "rmse": 0.09770031998310996, "gap_score": 0.69, "fallback_rate": 0.0, "unavailable_rate": 0.0, "p95_absolute_error": 0.16791365493360683}, "interpolated": {"n": 479, "mae": 0.054750950073458274, "bias": -0.004205662750736395, "rmse": 0.08127872130231685, "gap_score": 5.62, "fallback_rate": 0.0, "unavailable_rate": 0.0, "p95_absolute_error": 0.17303302203101678}, "climatology_fallback": {"n": 2, "mae": 0.0716484024093949, "bias": -0.0716484024093949, "rmse": 0.10016340246547653, "gap_score": 0, "fallback_rate": 1.0, "unavailable_rate": 0.0, "p95_absolute_error": 0.13464334694282853}}, "crop_type": {"зерновые": {"n": 110, "mae": 0.04121301791689137, "bias": -0.008750489719571004, "rmse": 0.06041560170608249, "gap_score": 11.88, "fallback_rate": 0.0, "unavailable_rate": 0.0, "p95_absolute_error": 0.1123558242980697}, "подсолнечник": {"n": 127, "mae": 0.051786451928373466, "bias": -0.004136791853413575, "rmse": 0.07268802597642332, "gap_score": 8.19, "fallback_rate": 0.0, "unavailable_rate": 0.0, "p95_absolute_error": 0.1582257791672806}, "озимая пшеница": {"n": 274, "mae": 0.06307403293540018, "bias": -0.000900184670916973, "rmse": 0.09355693720164253, "gap_score": 1.93, "fallback_rate": 0.0072992700729927005, "unavailable_rate": 0.0, "p95_absolute_error": 0.18171097813636997}}, "gap_bucket": {"0-8": {"n": 282, "mae": 0.04858272582722418, "bias": -0.005796869365553335, "rmse": 0.07219777156844387, "gap_score": 8.34, "fallback_rate": 0.0, "unavailable_rate": 0.0, "p95_absolute_error": 0.14087655570487168}, "9-30": {"n": 227, "mae": 0.06420732294182856, "bias": -0.0009562346796051527, "rmse": 0.09370842233482976, "gap_score": 1.89, "fallback_rate": 0.00881057268722467, "unavailable_rate": 0.0, "p95_absolute_error": 0.18617610698975703}, "31-60": {"n": 2, "mae": 0.058602699494412255, "bias": 0.058602699494412255, "rmse": 0.061369164517788496, "gap_score": 11.59, "fallback_rate": 0.0, "unavailable_rate": 0.0, "p95_absolute_error": 0.07499895980336665}}, "anon_polygon_id": {"AOI-0020": {"n": 127, "mae": 0.051786451928373466, "bias": -0.004136791853413575, "rmse": 0.07268802597642332, "gap_score": 8.19, "fallback_rate": 0.0, "unavailable_rate": 0.0, "p95_absolute_error": 0.1582257791672806}, "AOI-0027": {"n": 78, "mae": 0.10245404004493909, "bias": 0.007837915536269469, "rmse": 0.1390029511397557, "gap_score": 0, "fallback_rate": 0.0, "unavailable_rate": 0.0, "p95_absolute_error": 0.28055125023602234}, "AOI-0055": {"n": 95, "mae": 0.03844548553167068, "bias": 0.0033094943542843246, "rmse": 0.04869477835492955, "gap_score": 15.39, "fallback_rate": 0.0, "unavailable_rate": 0.0, "p95_absolute_error": 0.09286500816917051}, "AOI-0060": {"n": 101, "mae": 0.05582721559688795, "bias": -0.011608019557596834, "rmse": 0.08119957729863007, "gap_score": 5.64, "fallback_rate": 0.019801980198019802, "unavailable_rate": 0.0, "p95_absolute_error": 0.15883408250056502}, "AOI-0070": {"n": 110, "mae": 0.04121301791689137, "bias": -0.008750489719571004, "rmse": 0.06041560170608249, "gap_score": 11.88, "fallback_rate": 0.0, "unavailable_rate": 0.0, "p95_absolute_error": 0.1123558242980697}}}, "gap_score": 5.28, "p90_aoi_rmse": 0.11588160160330545, "fallback_rate": 0.003913894324853229, "median_aoi_rmse": 0.07268802597642332, "p95_absolute_error": 0.17323238306296773, "rmse_bootstrap_aoi_95": [0.059865539843004835, 0.10967436971075502]}}, "development": {"n": 4482, "mae": 0.05642374054288154, "bias": 0.00011304295131235983, "rmse": 0.07928744301854429, "slices": {"year": {"2010": {"n": 192, "mae": 0.05075728317436567, "bias": -0.0013540895090601258, "rmse": 0.07121612860426359, "gap_score": 8.64, "fallback_rate": 0.0, "unavailable_rate": 0.0, "p95_absolute_error": 0.17347005001539867}, "2011": {"n": 222, "mae": 0.05645008069934472, "bias": -0.005299990963434108, "rmse": 0.07554266165133004, "gap_score": 7.34, "fallback_rate": 0.04504504504504504, "unavailable_rate": 0.0, "p95_absolute_error": 0.17019335576919525}, "2012": {"n": 144, "mae": 0.05837078264954395, "bias": 0.0035990148043236114, "rmse": 0.07802866996719093, "gap_score": 6.59, "fallback_rate": 0.006944444444444444, "unavailable_rate": 0.0, "p95_absolute_error": 0.15953104825874112}, "2013": {"n": 200, "mae": 0.0571147865658911, "bias": -2.8961072280034862e-05, "rmse": 0.07608306762179769, "gap_score": 7.18, "fallback_rate": 0.01, "unavailable_rate": 0.0, "p95_absolute_error": 0.15164511591426433}, "2014": {"n": 244, "mae": 0.05220582819978787, "bias": -0.0033885760420178435, "rmse": 0.0722244514693672, "gap_score": 8.33, "fallback_rate": 0.004098360655737705, "unavailable_rate": 0.0, "p95_absolute_error": 0.14732063587579725}, "2015": {"n": 240, "mae": 0.053990228364984495, "bias": 0.004121265514690731, "rmse": 0.07122562282762802, "gap_score": 8.63, "fallback_rate": 0.004166666666666667, "unavailable_rate": 0.0, "p95_absolute_error": 0.15023813247059772}, "2016": {"n": 236, "mae": 0.06961638678756435, "bias": 0.0046028212495463966, "rmse": 0.0951873349605475, "gap_score": 1.44, "fallback_rate": 0.0, "unavailable_rate": 0.0, "p95_absolute_error": 0.21606357301908716}, "2017": {"n": 356, "mae": 0.05693863519076397, "bias": -0.006810507206731993, "rmse": 0.07606442111887678, "gap_score": 7.18, "fallback_rate": 0.0, "unavailable_rate": 0.0, "p95_absolute_error": 0.15869405551262772}, "2018": {"n": 314, "mae": 0.05763352056659738, "bias": -0.0043123575101240855, "rmse": 0.07570241864122662, "gap_score": 7.29, "fallback_rate": 0.0, "unavailable_rate": 0.0, "p95_absolute_error": 0.1594287596873128}, "2019": {"n": 488, "mae": 0.057038389971997755, "bias": -0.004214624445558114, "rmse": 0.07841938910347028, "gap_score": 6.47, "fallback_rate": 0.0, "unavailable_rate": 0.0, "p95_absolute_error": 0.16050104040757956}, "2020": {"n": 504, "mae": 0.046731541692051515, "bias": 0.008290127681731613, "rmse": 0.06844525896865274, "gap_score": 9.47, "fallback_rate": 0.0, "unavailable_rate": 0.0, "p95_absolute_error": 0.12807803683340183}, "2021": {"n": 424, "mae": 0.06298188791002335, "bias": -0.0008391701440426556, "rmse": 0.09150349021900432, "gap_score": 2.55, "fallback_rate": 0.0, "unavailable_rate": 0.0, "p95_absolute_error": 0.202116040800928}, "2022": {"n": 440, "mae": 0.056680295291359165, "bias": 0.006789730899892655, "rmse": 0.08689640737730797, "gap_score": 3.93, "fallback_rate": 0.0, "unavailable_rate": 0.0, "p95_absolute_error": 0.15194867888712243}, "2023": {"n": 478, "mae": 0.05703354254506215, "bias": -0.001657576291616226, "rmse": 0.08154399775137221, "gap_score": 5.54, "fallback_rate": 0.0, "unavailable_rate": 0.0, "p95_absolute_error": 0.1701799988116026}}, "origin": {"extrapolated": {"n": 185, "mae": 0.06937373614635808, "bias": 0.00047297910010545675, "rmse": 0.09042206799154301, "gap_score": 2.87, "fallback_rate": 0.0, "unavailable_rate": 0.0, "p95_absolute_error": 0.16815694442858412}, "interpolated": {"n": 4282, "mae": 0.05558342551175086, "bias": 0.000350001611538734, "rmse": 0.07829449712137061, "gap_score": 6.51, "fallback_rate": 0.0, "unavailable_rate": 0.0, "p95_absolute_error": 0.1617739638792418}, "climatology_fallback": {"n": 15, "mae": 0.13658905898677356, "bias": -0.07196996842309157, "rmse": 0.16627645727786589, "gap_score": 0, "fallback_rate": 1.0, "unavailable_rate": 0.0, "p95_absolute_error": 0.26473495254708707}}, "crop_type": {"зерновые": {"n": 1322, "mae": 0.051599788822139676, "bias": -0.0037480315283143816, "rmse": 0.0745678889606899, "gap_score": 7.63, "fallback_rate": 0.00529500756429652, "unavailable_rate": 0.0, "p95_absolute_error": 0.1476536458621447}, "подсолнечник": {"n": 504, "mae": 0.053454763849770506, "bias": 0.004591472823579169, "rmse": 0.0710292158275555, "gap_score": 8.69, "fallback_rate": 0.0, "unavailable_rate": 0.0, "p95_absolute_error": 0.13822212353103425}, "озимая пшеница": {"n": 2174, "mae": 0.06231304538775776, "bias": -0.0016726339104044118, "rmse": 0.08668776117998168, "gap_score": 3.99, "fallback_rate": 0.0022999080036798527, "unavailable_rate": 0.0, "p95_absolute_error": 0.17900905208983367}, "пастбища/зерновые": {"n": 482, "mae": 0.046196105056134196, "bias": 0.014074190884541286, "rmse": 0.06353057788652458, "gap_score": 10.94, "fallback_rate": 0.006224066390041493, "unavailable_rate": 0.0, "p95_absolute_error": 0.1406738584548754}}, "gap_bucket": {"0-8": {"n": 2786, "mae": 0.05254466614809907, "bias": -0.0006049174118313546, "rmse": 0.07477121772703262, "gap_score": 7.57, "fallback_rate": 0.0, "unavailable_rate": 0.0, "p95_absolute_error": 0.15319221582656783}, "9-30": {"n": 1637, "mae": 0.06279491830366898, "bias": 0.0010282860394806757, "rmse": 0.08623831027154635, "gap_score": 4.13, "fallback_rate": 0.00916310323762981, "unavailable_rate": 0.0, "p95_absolute_error": 0.17626554633255703}, "31-60": {"n": 59, "mae": 0.06282176205906617, "bias": 0.00862125712736073, "rmse": 0.08495806983737529, "gap_score": 4.51, "fallback_rate": 0.0, "unavailable_rate": 0.0, "p95_absolute_error": 0.1840692132828988}}, "anon_polygon_id": {"AOI-0002": {"n": 194, "mae": 0.06961722621759908, "bias": -0.010034066308023155, "rmse": 0.0952370959984835, "gap_score": 1.43, "fallback_rate": 0.0, "unavailable_rate": 0.0, "p95_absolute_error": 0.22014451865594517}, "AOI-0003": {"n": 242, "mae": 0.06129851663728197, "bias": 0.004872770636861896, "rmse": 0.08493946288570216, "gap_score": 4.52, "fallback_rate": 0.0, "unavailable_rate": 0.0, "p95_absolute_error": 0.17749297369161576}, "AOI-0004": {"n": 176, "mae": 0.060816464367490865, "bias": 0.0043272456144703144, "rmse": 0.08782449018386172, "gap_score": 3.65, "fallback_rate": 0.0, "unavailable_rate": 0.0, "p95_absolute_error": 0.1678176242349786}, "AOI-0007": {"n": 198, "mae": 0.050324766124385224, "bias": -0.005043887780511115, "rmse": 0.06865797749265469, "gap_score": 9.4, "fallback_rate": 0.0, "unavailable_rate": 0.0, "p95_absolute_error": 0.15218714845930856}, "AOI-0015": {"n": 252, "mae": 0.05859202743070179, "bias": 0.0001339874084496223, "rmse": 0.08799669776567197, "gap_score": 3.6, "fallback_rate": 0.0, "unavailable_rate": 0.0, "p95_absolute_error": 0.1698076902303423}, "AOI-0021": {"n": 250, "mae": 0.04616837890462136, "bias": 0.007428902816938475, "rmse": 0.05976894949828375, "gap_score": 12.07, "fallback_rate": 0.0, "unavailable_rate": 0.0, "p95_absolute_error": 0.12389510191461729}, "AOI-0023": {"n": 254, "mae": 0.06062640257531102, "bias": 0.0017987267671231589, "rmse": 0.08059018319867398, "gap_score": 5.82, "fallback_rate": 0.0, "unavailable_rate": 0.0, "p95_absolute_error": 0.16892709173722317}, "AOI-0026": {"n": 160, "mae": 0.05490784316056727, "bias": 0.0022170329654804034, "rmse": 0.07156882943050277, "gap_score": 8.53, "fallback_rate": 0.0, "unavailable_rate": 0.0, "p95_absolute_error": 0.16159354318176186}, "AOI-0030": {"n": 158, "mae": 0.06526409126072827, "bias": -0.0015788121124171361, "rmse": 0.08607554340739527, "gap_score": 4.18, "fallback_rate": 0.012658227848101266, "unavailable_rate": 0.0, "p95_absolute_error": 0.17055539315160548}, "AOI-0033": {"n": 244, "mae": 0.04236277320485898, "bias": 0.007859318945617642, "rmse": 0.05900566716635369, "gap_score": 12.3, "fallback_rate": 0.004098360655737705, "unavailable_rate": 0.0, "p95_absolute_error": 0.1381460987227176}, "AOI-0035": {"n": 238, "mae": 0.050126075525508795, "bias": 0.020445740267303343, "rmse": 0.06785704104239629, "gap_score": 9.64, "fallback_rate": 0.008403361344537815, "unavailable_rate": 0.0, "p95_absolute_error": 0.1414239099176993}, "AOI-0037": {"n": 238, "mae": 0.0486641660911802, "bias": -0.011759177170287998, "rmse": 0.08071466142040006, "gap_score": 5.79, "fallback_rate": 0.004201680672268907, "unavailable_rate": 0.0, "p95_absolute_error": 0.12199499364672155}, "AOI-0038": {"n": 238, "mae": 0.04173305406835664, "bias": 0.004300847183992953, "rmse": 0.05605889719288222, "gap_score": 13.18, "fallback_rate": 0.004201680672268907, "unavailable_rate": 0.0, "p95_absolute_error": 0.11001829434078865}, "AOI-0041": {"n": 230, "mae": 0.050230775216368505, "bias": -0.0068652133286577835, "rmse": 0.07033373298430787, "gap_score": 8.9, "fallback_rate": 0.008695652173913044, "unavailable_rate": 0.0, "p95_absolute_error": 0.1378556828217036}, "AOI-0043": {"n": 206, "mae": 0.046338603259592465, "bias": 0.00722775085310118, "rmse": 0.07046029462439202, "gap_score": 8.86, "fallback_rate": 0.0048543689320388345, "unavailable_rate": 0.0, "p95_absolute_error": 0.14100001021591896}, "AOI-0045": {"n": 218, "mae": 0.05315285345607175, "bias": 0.0019701778429244716, "rmse": 0.06979597221336703, "gap_score": 9.06, "fallback_rate": 0.0, "unavailable_rate": 0.0, "p95_absolute_error": 0.12389178947091048}, "AOI-0050": {"n": 194, "mae": 0.06322210911676282, "bias": -0.027059562263786502, "rmse": 0.08589710661145043, "gap_score": 4.23, "fallback_rate": 0.0, "unavailable_rate": 0.0, "p95_absolute_error": 0.16660592003762245}, "AOI-0053": {"n": 208, "mae": 0.05909067042437933, "bias": -0.002215435098710003, "rmse": 0.08675225075753154, "gap_score": 3.97, "fallback_rate": 0.004807692307692308, "unavailable_rate": 0.0, "p95_absolute_error": 0.18643508946922432}, "AOI-0064": {"n": 204, "mae": 0.07296333901440903, "bias": 0.009542221855840492, "rmse": 0.09839535159906014, "gap_score": 0.48, "fallback_rate": 0.00980392156862745, "unavailable_rate": 0.0, "p95_absolute_error": 0.2168567058268125}, "AOI-0071": {"n": 192, "mae": 0.07299078020955434, "bias": -0.01832933085207541, "rmse": 0.09762444153109161, "gap_score": 0.71, "fallback_rate": 0.010416666666666666, "unavailable_rate": 0.0, "p95_absolute_error": 0.21330501665739054}, "AOI-0075": {"n": 188, "mae": 0.06998901237211297, "bias": 0.005281390075966415, "rmse": 0.0930377048682938, "gap_score": 2.09, "fallback_rate": 0.0, "unavailable_rate": 0.0, "p95_absolute_error": 0.196554473617091}}}, "gap_score": 6.21, "p90_aoi_rmse": 0.0952370959984835, "fallback_rate": 0.0033467202141900937, "median_aoi_rmse": 0.08071466142040006, "p95_absolute_error": 0.16330786281698653, "rmse_bootstrap_aoi_95": [0.07371626606829289, 0.0842434788837096]}, "interval_assessment": {"temporal_blocks": {"n": 286, "coverage": 0.8531468531468531, "mean_width": 0.37120923625553837, "nominal_level": 0.9}, "temporal_points": {"n": 282, "coverage": 0.925531914893617, "mean_width": 0.24415534671679123, "nominal_level": 0.9}, "assessment_blocks": {"n": 514, "coverage": 0.877431906614786, "mean_width": 0.37295334043544276, "nominal_level": 0.9}, "assessment_points": {"n": 511, "coverage": 0.9080234833659491, "mean_width": 0.24731437293168262, "nominal_level": 0.9}, "calibration_blocks": {"n": 622, "coverage": 0.9019292604501608, "mean_width": 0.37839824259650773, "nominal_level": 0.9}, "calibration_points": {"n": 551, "coverage": 0.9074410163339383, "mean_width": 0.24826764852300148, "nominal_level": 0.9}}}, "version": "0.1.0", "model_id": "25a39f51737d1012", "created_at": "2026-09-04T23:58:46.756603+00:00", "calibration": {"n": 1173, "unit": "masked_observation", "level": 0.9, "domain": "anonymous_benchmark", "groups": {"edge": {"n": 71, "radius": 0.16969932645636604, "pooled_fallback": true}, "long": {"n": 244, "radius": 0.16547123752342952, "pooled_fallback": false}, "prior": {"n": 281, "radius": 0.22894117330911212, "pooled_fallback": false}, "short": {"n": 577, "radius": 0.12014469112932674, "pooled_fallback": false}}, "method": "empirical_residual", "limitations": "Repeated observations within AOI are dependent; no unconditional coverage guarantee", "minimum_group": 100, "pooled_radius": 0.16969932645636604}, "git_revision": "d55ba0b347f1a6eed66b404fc4c4802b00216607", "input_sha256": "08e4f724f616459c944050aa25c1a46d16055501c785faeda74edd907c665fc6", "source_sha256": "aa5049ab16cdaaa2b5aafd9956ab1863264a246e8ac48a2cf5c2b0f946751dc6", "target_filter": "fit finite NDVI in [-1,1]; evaluate unchanged targets", "feature_schema": ["base", "support", "gap", "sin_doy", "cos_doy", "fallback", "s2_ndvi", "s2_evi", "s2_ndwi", "landsat_ndvi", "landsat_evi", "landsat_ndwi", "modis_ndvi", "modis_evi"], "postprocessing": {"clip": false, "preserve_clean_observations": true}, "schema_version": 1, "training_scope": {"polygon_ids": ["AOI-0002", "AOI-0003", "AOI-0004", "AOI-0007", "AOI-0015", "AOI-0021", "AOI-0023", "AOI-0026", "AOI-0030", "AOI-0033", "AOI-0035", "AOI-0037", "AOI-0038", "AOI-0041", "AOI-0043", "AOI-0045", "AOI-0050", "AOI-0053", "AOI-0064", "AOI-0071", "AOI-0075"], "years_before": 2024, "assessment_ids": ["AOI-0020", "AOI-0027", "AOI-0055", "AOI-0060", "AOI-0070"], "calibration_ids": ["AOI-0022", "AOI-0040", "AOI-0065", "AOI-0069", "AOI-0076"], "excluded_previously_inspected_holdout": ["AOI-0008", "AOI-0011", "AOI-0019", "AOI-0048", "AOI-0052", "AOI-0056", "AOI-0063", "AOI-0077"]}, "external_models": [], "supported_modes": ["retrospective"], "external_datasets": [], "validation_hashes": {"masks": {"temporal_blocks": "4d2f8a20c25fdfd3c658e460fc55d99c6bd9adc301783e11541570364871c72a", "temporal_points": "b176470e82d915ae0b6b98d2914feaa7e28172fa9b9e752881bc39866673fde0", "development_blocks-0-42": "ac654d6383b0f1a5c595559f4f7195d2b35542c3b8418a32f02511f64e1035ea", "development_blocks-1-42": "7a1b76e5c697e228567ffa2bf732766e4ec290de2c66eb65cc1520948524a2ea", "development_blocks-2-42": "4bdf6c7a0b1ce8ca03f1a77c524d3cf00d12b11bd4e74e3cb7ec914cd8303193", "development_blocks-3-42": "cf0efd44630a4f8ed04e4fb076c77d21771d62a41cc48a6f37b800fe4d539e8a", "development_blocks-4-42": "b0cc878be783388936c9d0a179417cefae8e583d1557c7b12597e70f0de41d2b", "development_points-0-42": "265b0bd5e06a37e804f9445961d2af8d09ecfcb2836ef2d1f3339f0b26f03c95", "development_points-1-42": "dbcb2d8b73962c76405c3aee3a1ee9767c32dd48db4c63d4cc3786a453ef721b", "development_points-2-42": "47943b67529fd49eb4ef269eeaeefbc20a2a024fb302768fc86b9bec2d1625c9", "development_points-3-42": "d1d05db38c7a859f19559524db7023bd4374bd391488691eafc9c4f60b39a044", "development_points-4-42": "f9810466fe7aab785e288553fa0aaee21db100989ca0c2a2c94f685ab78d6795", "development_blocks-0-137": "f2c55c3875e073e7eafd8823f9e4bb201973d44cc50d98161047ab3bd08d631c", "development_blocks-1-137": "c38683df399a5f1642cc4857d49dfc62d327aebc34194037a8fd72e657708770", "development_blocks-2-137": "3a5a6dc18726c5e2d34761c70e911055025b936e49b00ce17b039cf5ff2e3305", "development_blocks-3-137": "6a1007815dc585c626a1bf8bfd190634088b12a12681fe3798f897963477685c", "development_blocks-4-137": "2a1877b984432821b45e986c19cbf0bf2ab188c8978eae38adbf3485cc3f0b9e", "development_points-0-137": "3944a5bf561b61f2fd776a3f002966ce70f9a7e5f18acd8f031bf27e1bcadf6b", "development_points-1-137": "b068ab86059482ce335d03ebf2335854a077acbd4185659e192bea17ef0ccf93", "development_points-2-137": "b1b90668c8a21fb4c3dbd477dc5396979ecf4d94879c90a3880570e704ef95d1", "development_points-3-137": "fd74da53b8e300c69ab0d8ac5df74fe58a7f57d8df8c67d6acac2bbb6e455e5e", "development_points-4-137": "935aefcbe305208b8827d06dc7746133c0f23368f6ea9590dc8fd5ac9dc37238", "assessment_blocks--1-2003": "37b26662f2a602aa1f5c39e8493827fc6cb16ef528df9684f4b151241649cfa7", "assessment_points--1-2003": "1f03e13ca825f30933ba2dd89e07e720f4b96736f6acbfaed0e0ff5771ce7e98", "calibration_blocks--1-991": "524e1cffd764aa21ff5456d8593e58a965350541a96a9497bdb96dde9783d8ac", "calibration_points--1-991": "374020c82185144c319e6670b0fee550da30956f7b045146b9bda95d08cabc04"}, "split": "8cdeb5546b06b133aaa2112c9592723904f78df697de28688ad497052ac00acf"}, "dependency_lock_sha256": "f296b164924b16532acaf90c076d8e9611a8d2a167667376a9a4bfb826b6cf8a"}, "model_artifact_hash": "258b5ef85e01854c0d13f529ea60f1ce362c65c2f41ebd6dce3889413a18bf8c", "config": {"options": {"refresh_sources": false, "climatology_years": 0}, "sources": ["era5_land", "landsat", "sentinel2"], "crop_type": null, "max_scenes": 80, "aggregation": "multi-optical-median-full-aoi-v3", "crop_seasons": [], "reference_method": "median_mad", "source_revisions": {"landsat": "landsat-c2-l2:full-aoi-qa-v2", "era5_land": "open-meteo-era5-seamless:utc-v2", "sentinel2": "sentinel-2-c1-l2a:full-aoi-qa-v3"}}, "config_hash": "a1bf1a1a9bc665b9f46fe409467589cf3078af34ac7862891ca6c02c8e1271e0", "summary": {"total_days": 11, "summary_rule": "event-max-severity-else-two-clean-days-with-valid-reference-v2", "observed_days": 1, "overall_status": "insufficient_data", "latest_estimate": {"date": "2024-06-20", "value": 0.32315501713467926, "origin": "observed"}, "longest_gap_days": 10, "unavailable_days": 0, "reconstructed_days": 10, "anomaly_period_count": 0, "observed_coverage_ratio": 0.09090909090909091}, "warnings": [{"code": "scene_unavailable", "reason": "RasterioIOError", "provider": "earth_search", "scene_id": "S2A_T30STG_20240614T110942_L2A", "affected_period": {"to": "2024-06-20", "from": "2024-06-10"}}, {"code": "scene_unavailable", "reason": "RasterioIOError", "provider": "earth_search", "scene_id": "S2A_T29SQB_20240614T110942_L2A", "affected_period": {"to": "2024-06-20", "from": "2024-06-10"}}, {"code": "scene_unavailable", "reason": "RasterioIOError", "provider": "earth_search", "scene_id": "S2B_T30STG_20240619T111619_L2A", "affected_period": {"to": "2024-06-20", "from": "2024-06-10"}}, {"code": "insufficient_reference", "message": "Не набрано три сопоставимых исторических сезона"}], "units": {"ndvi": "dimensionless", "temperature": "degC", "precipitation": "mm/day", "area": "ha"}, "snapshots": [{"id": "0f357b10-ae5b-4400-896c-ab55a578d8e6", "provider": "planetary_computer_landsat", "checksum": "208aff82ab21b2c94d6312773656fd6c7dcd270de701388839fc5c7be255a55c", "query_hash": "ab5e460e14a71f76ba96f1fbd3d37186a01f73997706fc0541603a58c6863031", "geometry_hash": "9dba5b3969168c659bd45f07beff9dd998a75d5b7520503574031a1b4031f27c", "retrieved_at": "2026-09-05T00:14:48.796517+00:00", "status": "completed", "metadata": {"query": {"bbox": "-5.8269418,37.4574422,-5.8116662,37.4631852", "limit": 81, "query": "{\"platform\": {\"in\": [\"landsat-8\", \"landsat-9\"]}, \"landsat:collection_category\": {\"eq\": \"T1\"}}", "datetime": "2024-06-10T00:00:00Z/2024-06-20T23:59:59Z", "collections": "landsat-c2-l2"}, "provider": "planetary_computer_landsat", "warnings": [], "retrieved_at": "2026-09-05T00:14:48.790877+00:00"}}, {"id": "4ae03296-abd4-4d77-8746-81ca2f613d1a", "provider": "earth_search", "checksum": "1a374a88388a03422ada80ca87c9699bce9b870ff75d6c781623287c5192cf78", "query_hash": "eb1b50aefdf91e8ab2cc14c7f90297516aa7eeb2b6fd361fc908ffdd8edad4d4", "geometry_hash": "9dba5b3969168c659bd45f07beff9dd998a75d5b7520503574031a1b4031f27c", "retrieved_at": "2026-09-05T00:15:59.998382+00:00", "status": "partial", "metadata": {"query": {"bbox": "-5.8269418,37.4574422,-5.8116662,37.4631852", "limit": 81, "datetime": "2024-06-10T00:00:00Z/2024-06-20T23:59:59Z", "collections": "sentinel-2-c1-l2a"}, "provider": "earth_search", "warnings": [{"code": "scene_unavailable", "reason": "RasterioIOError", "provider": "earth_search", "scene_id": "S2A_T30STG_20240614T110942_L2A"}, {"code": "scene_unavailable", "reason": "RasterioIOError", "provider": "earth_search", "scene_id": "S2A_T29SQB_20240614T110942_L2A"}, {"code": "scene_unavailable", "reason": "RasterioIOError", "provider": "earth_search", "scene_id": "S2B_T30STG_20240619T111619_L2A"}], "retrieved_at": "2026-09-05T00:15:59.992593+00:00"}}, {"id": "d051f336-b7db-418a-9c6e-a8862bf3e150", "provider": "open_meteo_era5_seamless", "checksum": "ff4009a44f2fe782742b3fcca629bdfaeba94fd87459d30c4b5ce5b3d90f24cf", "query_hash": "a3e0181645147bacdee462e5bc955f36df7d264e761643c35b3e11cbc0577378", "geometry_hash": "9dba5b3969168c659bd45f07beff9dd998a75d5b7520503574031a1b4031f27c", "retrieved_at": "2026-09-05T00:16:01.042218+00:00", "status": "completed", "metadata": {"query": {"daily": "temperature_2m_mean,precipitation_sum", "models": "era5_seamless", "end_date": "2024-06-20", "latitude": 37.46037082153624, "timezone": "UTC", "longitude": -5.818720886901875, "start_date": "2024-06-10", "aggregation": "centroid_grid_sampling_utc_daily_v2", "field_sources": {"temperature_c": "era5_land", "precipitation_mm": "era5"}, "cell_selection": "land", "temperature_unit": "celsius", "precipitation_unit": "mm"}, "provider": "open_meteo_era5_seamless", "warnings": [], "retrieved_at": "2026-09-05T00:16:01.041157+00:00"}}], "anomalies": []}}